COSMOS 2058             
1 20465U 90010A   26196.78933045  .00001709  00000+0  97362-4 0  9997
2 20465  82.4672 281.1461 0007969 247.4979 112.5408 15.12158485961595
SL-14 R/B               
1 20466U 90010B   26196.89845211  .00000177  00000+0  18567-4 0  9995
2 20466  82.5035 146.9822 0018415 234.7833 125.1659 14.83663310947491
SL-14 R/B               
1 20511U 90018B   26196.76968349  .00000216  00000+0  24021-4 0  9994
2 20511  82.5217 103.3934 0016990  35.0744 325.1585 14.82234340941551
HST                     
1 20580U 90037B   26196.50035387  .00003469  00000+0  10488-3 0  9994
2 20580  28.4723 247.0189 0002191 106.0764 254.0074 15.31063070792917
SL-16 R/B               
1 20625U 90046B   26196.93158553  .00000264  00000+0  16082-3 0  9998
2 20625  70.9987  28.5771 0012386 113.0227 247.2203 14.15025153866538
COSMOS 2084             
1 20663U 90055A   26196.54339088  .00000823  00000+0  69635-4 0  9995
2 20663  62.7883 259.2988 0008131 318.5258  41.5225 15.06224618955576
SL-6 R/B(2)             
1 20666U 90055D   26196.90393806  .00000991  00000+0  84463-4 0  9998
2 20666  62.7806 177.6488 0045269   9.0960 351.0948 15.04089660957473
SL-8 R/B                
1 20775U 90078B   26196.94584782  .00009752  00000+0  27651-3 0  9992
2 20775  82.9039 135.6316 0343324 300.9827  55.8080 14.93590351828416
SL-8 R/B                
1 21088U 91006B   26196.75558292  .00000093  00000+0  77479-4 0  9991
2 21088  82.9407  74.7791 0023404  39.0520  27.4621 13.77509335781706
OKEAN-3                 
1 21397U 91039A   26196.58778321  .00001826  00000+0  12513-3 0  9990
2 21397  82.5143 212.8374 0012428 253.2175 106.7688 15.05436046884275
COSMOS 2151             
1 21422U 91042A   26196.73518929  .00000761  00000+0  58184-4 0  9998
2 21422  82.4982 320.1298 0011908 353.6763   6.4309 15.00513993882391
SL-14 R/B               
1 21423U 91042B   26196.78231085  .00000182  00000+0  19944-4 0  9997
2 21423  82.4932 100.0810 0017024 174.9905 185.1483 14.81918278872041
ERS-1                   
1 21574U 91050A   26196.94083141  .00000162  00000+0  66500-4 0  9997
2 21574  98.7796 218.3409 0031896 179.5534 180.5687 14.39533469834181
ARIANE 40 R/B           
1 21610U 91050F   26196.13264318  .00000122  00000+0  48798-4 0  9991
2 21610  98.1863 243.4589 0004160  61.5815 298.5795 14.42971868837372
INTERCOSMOS 25          
1 21819U 91086A   26196.50587507  .00000105  00000+0  17864-4 0  9991
2 21819  82.6007 232.6730 1484597 201.2546 152.0077 12.12240510512173
SL-8 R/B                
1 21876U 92008B   26196.92068792  .00000096  00000+0  82466-4 0  9994
2 21876  82.9272 172.4240 0035706 134.6356 282.1842 13.75983933727054
SL-8 R/B                
1 21938U 92020B   26196.56848810  .00000013  00000+0 -15449-5 0  9992
2 21938  82.9280  58.7729 0027943 302.4251 121.9465 13.75550220718716
USA 81                  
1 21949U 92023A   26196.14742304  .00000106  00000+0  31871-4 0  9990
2 21949  85.0051  57.8662 0001978  64.8606 295.2791 14.32404929113036
COSMOS 2219             
1 22219U 92076A   26196.90991228 -.00000226  00000+0 -93863-4 0  9998
2 22219  71.0611 110.0296 0018314 356.3782   3.7204 14.14108464736504
SL-16 R/B               
1 22220U 92076B   26196.55889840  .00000129  00000+0  88047-4 0  9995
2 22220  71.0005 279.0154 0015032 261.7211 195.1909 14.16877561739944
COSMOS 2221             
1 22236U 92080A   26196.95623097  .00000834  00000+0  70777-4 0  9995
2 22236  82.5046 156.2013 0015765 117.9325 242.3495 14.96605212799978
SL-16 R/B               
1 22285U 92093B   26196.93421259 -.00000248  00000+0 -10237-3 0  9992
2 22285  71.0217  95.0440 0002247 132.9289 227.2023 14.15465528731303
COSMOS 2228             
1 22286U 92094A   26196.88438046  .00000810  00000+0  66749-4 0  9993
2 22286  82.5188 114.5554 0016357 226.6527 133.3333 14.97676715795240
SL-16 R/B               
1 22566U 93016B   26196.70530398  .00000225  00000+0  14002-3 0  9997
2 22566  71.0085 306.3093 0008822 137.0399 223.1414 14.15312880720289
COSMOS 2242             
1 22626U 93024A   26196.92385627  .00000881  00000+0  74146-4 0  9994
2 22626  82.5198 144.0497 0014708 229.9287 130.0646 14.96986094799574
SL-16 R/B               
1 22803U 93059B   26196.93375321 -.00000091  00000+0 -21453-4 0  9998
2 22803  70.9901 100.6833 0016684   7.4228 352.7139 14.17249388697708
ARIANE 40 R/B           
1 22830U 93061H   26196.76501541  .00000072  00000+0  42214-4 0  9992
2 22830  98.4806 263.0265 0009497 263.8588  96.1514 14.32918680712441
COSMOS 2278             
1 23087U 94023A   26196.53602734  .00000017  00000+0  33659-4 0  9999
2 23087  71.0523 267.6132 0009615 205.0482 155.0175 14.14393277662884
SL-16 R/B               
1 23088U 94023B   26196.31305392  .00000119  00000+0  85856-4 0  9995
2 23088  70.9984 162.8641 0001397 127.7315 232.3935 14.15024540664148
SL-16 R/B               
1 23343U 94074B   26196.95869256  .00000185  00000+0  31249-4 0  9999
2 23343  97.6986 222.4796 0007226 152.0332 271.8272 14.79524656706211
